H1 CPF 01  gfz 2021 10 25 12  7982 tandemx   
H2 1003001  6202 36605    2021 10 25 12 59 42 2021 10 30 00 00 42   120 1 1  0 0 0
H9
10 0 59512  63342.000000  0    4259062.907   1178101.043  -5292316.836
10 0 59512  63462.000000  0    4939308.312   1129528.266  -4675260.855
10 0 59512  63582.000000  0    5532570.282   1050176.919  -3976353.528
10 0 59512  63702.000000  0    6027917.372    943024.263  -3207754.683
10 0 59512  63822.000000  0    6416160.825    811711.189  -2382874.876
10 0 59512  63942.000000  0    6690038.177    660449.024  -1516145.648
10 0 59512  64062.000000  0    6844361.868    493912.162   -622766.066
10 0 59512  64182.000000  0    6876127.253    317119.274    281567.877
10 0 59512  64302.000000  0    6784578.778    135306.865   1180944.952
10 0 59512  64422.000000  0    6571231.962    -46203.501   2059527.099
10 0 59512  64542.000000  0    6239848.659   -222139.407   2901838.159
10 0 59512  64662.000000  0    5796366.102   -387410.590   3693044.803
10 0 59512  64782.000000  0    5248782.587   -537236.207   4419222.890
10 0 59512  64902.000000  0    4607005.353   -667263.904   5067606.134
10 0 59512  65022.000000  0    3882660.007   -773678.468   5626811.330
10 0 59512  65142.000000  0    3088869.719   -853295.447   6087034.527
10 0 59512  65262.000000  0    2240009.669   -903639.841   6440218.145
10 0 59512  65382.000000  0    1351441.630   -923007.761   6680186.437
10 0 59512  65502.000000  0     439231.650   -910510.161   6802748.695
10 0 59512  65622.000000  0    -480142.459   -866097.174   6805766.746
10 0 59512  65742.000000  0   -1390088.111   -790563.590   6689188.753
10 0 59512  65862.000000  0   -2274195.982   -685534.668   6455049.642
10 0 59512  65982.000000  0   -3116534.394   -553432.598   6107437.983
10 0 59512  66102.000000  0   -3901937.227   -397424.148   5652430.413
10 0 59512  66222.000000  0   -4616281.219   -221350.753   5097992.021
10 0 59512  66342.000000  0   -5246746.624    -29641.881   4453842.463
10 0 59512  66462.000000  0   -5782055.501    172786.494   3731289.782
10 0 59512  66582.000000  0   -6212682.302    380646.704   2943034.430
10 0 59512  66702.000000  0   -6531033.534    588405.079   2102947.050
10 0 59512  66822.000000  0   -6731591.250    790415.560   1225821.544
10 0 59512  66942.000000  0   -6811016.504    981057.360    327108.769
10 0 59512  67062.000000  0   -6768209.012   1154873.909   -577364.209
10 0 59512  67182.000000  0   -6604320.443   1306709.113  -1471682.272
10 0 59512  67302.000000  0   -6322722.541   1431836.907  -2340129.886
10 0 59512  67422.000000  0   -5928932.952   1526082.824  -3167474.359
10 0 59512  67542.000000  0   -5430496.374   1585932.428  -3939239.006
10 0 59512  67662.000000  0   -4836826.982   1608623.900  -4641956.678
10 0 59512  67782.000000  0   -4159018.117   1592224.006  -5263400.847
10 0 59512  67902.000000  0   -3409624.066   1535685.436  -5792790.330
10 0 59512  68022.000000  0   -2602420.340   1438884.686  -6220966.212
10 0 59512  68142.000000  0   -1752146.233   1302639.843  -6540539.613
10 0 59512  68262.000000  0    -874234.043   1128709.032  -6746007.201
10 0 59512  68382.000000  0      15467.507    919768.551  -6833834.850
10 0 59512  68502.000000  0     900971.934    679372.638  -6802511.409
10 0 59512  68622.000000  0    1766435.230    411894.266  -6652574.437
10 0 59512  68742.000000  0    2596433.803    122447.452  -6386601.623
10 0 59512  68862.000000  0    3376233.911   -183206.827  -6009171.543
10 0 59512  68982.000000  0    4092050.402   -498770.894  -5526792.110
10 0 59512  69102.000000  0    4731289.496   -817534.596  -4947799.384
10 0 59512  69222.000000  0    5282775.561  -1132512.438  -4282226.055
10 0 59512  69342.000000  0    5736954.598  -1436590.691  -3541637.804
10 0 59512  69462.000000  0    6086070.177  -1722681.696  -2738940.773
10 0 59512  69582.000000  0    6324307.873  -1983882.461  -1888161.969
10 0 59512  69702.000000  0    6447903.788  -2213633.657  -1004205.536
10 0 59512  69822.000000  0    6455213.957  -2405874.576   -102589.767
10 0 59512  69942.000000  0    6346742.450  -2555190.825    800830.623
10 0 59512  70062.000000  0    6125126.462  -2656949.996   1690151.327
10 0 59512  70182.000000  0    5795077.587  -2707422.235   2549708.023
10 0 59512  70302.000000  0    5363281.088  -2703882.494   3364360.925
10 0 59512  70422.000000  0    4838255.151  -2644690.794   4119768.847
10 0 59512  70542.000000  0    4230176.042  -2529349.154   4802644.538
10 0 59512  70662.000000  0    3550674.310  -2358535.582   5400990.816
10 0 59512  70782.000000  0    2812602.692  -2134112.730   5904310.816
10 0 59512  70902.000000  0    2029785.578  -1859110.897   6303787.380
10 0 59512  71022.000000  0    1216754.902  -1537687.529   6592431.938
10 0 59512  71142.000000  0     388476.780  -1175063.478   6765200.950
10 0 59512  71262.000000  0    -439925.532   -777436.811   6819078.263
10 0 59512  71382.000000  0   -1253447.113   -351876.181   6753123.549
10 0 59512  71502.000000  0   -2037471.881     93804.564   6568487.566
10 0 59512  71622.000000  0   -2778034.157    551189.362   6268393.547
10 0 59512  71742.000000  0   -3462067.774   1011417.871   5858085.004
10 0 59512  71862.000000  0   -4077639.306   1465355.839   5344740.245
10 0 59512  71982.000000  0   -4614161.800   1903775.376   4737353.170
10 0 59512  72102.000000  0   -5062584.034   2317542.373   4046580.668
10 0 59512  72222.000000  0   -5415550.655   2697806.878   3284558.800
10 0 59512  72342.000000  0   -5667529.997   3036191.713   2464691.051
10 0 59512  72462.000000  0   -5814907.736   3324975.876   1601411.954
10 0 59512  72582.000000  0   -5856043.367   3557268.700    709928.155
10 0 59512  72702.000000  0   -5791285.158   3727168.387   -194057.313
10 0 59512  72822.000000  0   -5622945.475   3829901.337  -1094629.782
10 0 59512  72942.000000  0   -5355237.069   3861939.888  -1975952.133
10 0 59512  73062.000000  0   -4994169.853   3821093.917  -2822552.886
10 0 59512  73182.000000  0   -4547411.925   3706574.223  -3619603.542
10 0 59512  73302.000000  0   -4024119.455   3519026.550  -4353180.273
10 0 59512  73422.000000  0   -3434741.605   3260536.876  -5010504.572
10 0 59512  73542.000000  0   -2790804.766   2934607.832  -5580159.043
10 0 59512  73662.000000  0   -2104683.576   2546108.565  -6052276.578
10 0 59512  73782.000000  0   -1389359.937   2101198.128  -6418701.505
10 0 59512  73902.000000  0    -658177.145   1607224.236  -6673117.951
10 0 59512  74022.000000  0      75405.647   1072601.033  -6811147.902
10 0 59512  74142.000000  0     798055.188    506666.974  -6830417.995
10 0 59512  74262.000000  0    1496800.924    -80474.830  -6730597.688
10 0 59512  74382.000000  0    2159263.004   -678133.294  -6513403.193
10 0 59512  74502.000000  0    2773866.207  -1275218.696  -6182571.146
10 0 59512  74622.000000  0    3330039.677  -1860443.172  -5743801.113
10 0 59512  74742.000000  0    3818398.502  -2422529.162  -5204668.421
10 0 59512  74862.000000  0    4230906.422  -2950425.569  -4574504.922
10 0 59512  74982.000000  0    4561012.535  -3433525.122  -3864247.282
10 0 59512  75102.000000  0    4803761.582  -3861878.141  -3086257.248
10 0 59512  75222.000000  0    4955876.316  -4226400.090  -2254113.905
10 0 59512  75342.000000  0    5015807.706  -4519066.946  -1382379.797
10 0 59512  75462.000000  0    4983751.716  -4733094.171   -486345.657
10 0 59512  75582.000000  0    4861630.174  -4863094.124    418242.439
10 0 59512  75702.000000  0    4653036.444  -4905206.592   1315467.067
10 0 59512  75822.000000  0    4363147.088  -4857198.699   2189528.821
10 0 59512  75942.000000  0    3998600.964  -4718532.047   3025032.872
10 0 59512  76062.000000  0    3567350.516  -4490395.792   3807267.771
10 0 59512  76182.000000  0    3078487.223  -4175704.107   4522470.305
10 0 59512  76302.000000  0    2542047.106  -3779058.137   5158070.380
10 0 59512  76422.000000  0    1968801.412  -3306674.761   5702911.544
10 0 59512  76542.000000  0    1370036.587  -2766283.399   6147444.561
10 0 59512  76662.000000  0     757329.044  -2166993.506   6483889.024
10 0 59512  76782.000000  0     142319.626  -1519136.960   6706363.203
10 0 59512  76902.000000  0    -463507.586   -834087.439   6810980.972
10 0 59512  77022.000000  0   -1049038.657   -124058.926   6795915.644
10 0 59512  77142.000000  0   -1603732.884    598112.048   6661429.638
10 0 59512  77262.000000  0   -2117811.988   1319197.952   6409870.069
10 0 59512  77382.000000  0   -2582432.749   2025821.595   6045630.330
10 0 59512  77502.000000  0   -2989840.212   2704703.984   5575078.295
10 0 59512  77622.000000  0   -3333499.766   3342915.384   5006451.516
10 0 59512  77742.000000  0   -3608205.951   3928124.401   4349718.998
10 0 59512  77862.000000  0   -3810164.906   4448841.211   3616411.407
10 0 59512  77982.000000  0   -3937048.588   4894649.377   2819421.140
10 0 59512  78102.000000  0   -3988019.425   5256420.535   1972774.624
10 0 59512  78222.000000  0   -3963723.618   5526505.687   1091381.932
10 0 59512  78342.000000  0   -3866254.938   5698899.651    190769.353
10 0 59512  78462.000000  0   -3699089.589   5769375.261   -713202.124
10 0 59512  78582.000000  0   -3466991.163   5735580.902  -1604626.834
10 0 59512  78702.000000  0   -3175889.335   5597098.741  -2467844.275
10 0 59512  78822.000000  0   -2832734.397   5355463.590  -3287720.442
10 0 59512  78942.000000  0   -2445335.389   5014142.779  -4049916.311
10 0 59512  79062.000000  0   -2022184.226   4578477.477  -4741138.255
10 0 59512  79182.000000  0   -1572270.426   4055588.766  -5349364.059
10 0 59512  79302.000000  0   -1104892.160   3454252.974  -5864044.109
10 0 59512  79422.000000  0    -629465.891   2784746.526  -6276275.759
10 0 59512  79542.000000  0    -155338.848   2058663.923  -6578945.937
10 0 59512  79662.000000  0     308390.659   1288715.070  -6766842.033
10 0 59512  79782.000000  0     753042.940    488504.184  -6836733.013
99
